KUIPER-00008            
1 63724U 25088A   25285.33785246 -.00003426  00000+0 -25408-3 0  9993
2 63724  51.8918  43.3826 0011031 324.7173  35.3066 14.99529802 25802
KUIPER-00009            
1 63725U 25088B   25284.67697771  .00006937  00000+0  93505-3 0  9996
2 63725  51.9025  45.5384 0012117 329.0851  30.9397 14.80031147 25711
KUIPER-00010            
1 63726U 25088C   25285.33335648 -.00432060  00000+0 -37299-1 0  9991
2 63726  51.8959  19.9930 0011990  12.1635 152.2388 14.99092540  4457
KUIPER-00011            
1 63727U 25088D   25285.30289602  .00001956  00000+0  28538-3 0  9999
2 63727  51.9048  26.8302 0012734 346.9838  13.0794 14.79959620 25781
KUIPER-00012            
1 63728U 25088E   25284.64491249  .00010933  00000+0  49715-3 0  9993
2 63728  51.8733  22.2350 0010678 337.0471  23.0030 15.21179973 25747
KUIPER-00013            
1 63729U 25088F   25284.67584466 -.00000066  00000+0  20630-4 0  9994
2 63729  51.9051  47.0110 0007087 252.1379 107.8811 14.79932050 25502
KUIPER-00014            
1 63730U 25088G   25285.07955373 -.00000576  00000+0 -46259-4 0  9992
2 63730  51.9038  46.1951 0006918 326.6009  33.4516 14.79924721 25367
KUIPER-00015            
1 63731U 25088H   25285.05702312  .00004576  00000+0  60773-3 0  9992
2 63731  51.8992  58.0469 0009351 307.1135  52.8973 14.81375111 25650
