<?xml version="1.0" encoding="UTF-8"?>
<ndm xmlns:xsi="http://www.w3.org/2001/XMLSchema-instance" xsi:noNamespaceSchemaLocation="https://sanaregistry.org/r/ndmxml_unqualified/ndmxml-2.0.0-master-2.0.xsd">
<omm id="CCSDS_OMM_VERS" version="2.0">
<header><CREATION_DATE/><ORIGINATOR/></header><body><segment><metadata><OBJECT_NAME>KUIPER-00008</OBJECT_NAME><OBJECT_ID>2025-088A</OBJECT_ID><CENTER_NAME>EARTH</CENTER_NAME><REF_FRAME>TEME</REF_FRAME><TIME_SYSTEM>UTC</TIME_SYSTEM><MEAN_ELEMENT_THEORY>SGP4</MEAN_ELEMENT_THEORY></metadata><data><meanElements><EPOCH>2025-10-12T08:06:30.452544</EPOCH><MEAN_MOTION>14.99529802</MEAN_MOTION><ECCENTRICITY>.00110317</ECCENTRICITY><INCLINATION>51.8918</INCLINATION><RA_OF_ASC_NODE>43.3826</RA_OF_ASC_NODE><ARG_OF_PERICENTER>324.7173</ARG_OF_PERICENTER><MEAN_ANOMALY>35.3066</MEAN_ANOMALY></meanElements><tleParameters><EPHEMERIS_TYPE>0</EPHEMERIS_TYPE><CLASSIFICATION_TYPE>U</CLASSIFICATION_TYPE><NORAD_CAT_ID>63724</NORAD_CAT_ID><ELEMENT_SET_NO>999</ELEMENT_SET_NO><REV_AT_EPOCH>2580</REV_AT_EPOCH><BSTAR>-.25407622E-3</BSTAR><MEAN_MOTION_DOT>-.3426E-4</MEAN_MOTION_DOT><MEAN_MOTION_DDOT>0</MEAN_MOTION_DDOT></tleParameters></data></segment></body></omm>
<omm id="CCSDS_OMM_VERS" version="2.0">
<header><CREATION_DATE/><ORIGINATOR/></header><body><segment><metadata><OBJECT_NAME>KUIPER-00009</OBJECT_NAME><OBJECT_ID>2025-088B</OBJECT_ID><CENTER_NAME>EARTH</CENTER_NAME><REF_FRAME>TEME</REF_FRAME><TIME_SYSTEM>UTC</TIME_SYSTEM><MEAN_ELEMENT_THEORY>SGP4</MEAN_ELEMENT_THEORY></metadata><data><meanElements><EPOCH>2025-10-11T16:14:50.874144</EPOCH><MEAN_MOTION>14.80031147</MEAN_MOTION><ECCENTRICITY>.00121171</ECCENTRICITY><INCLINATION>51.9025</INCLINATION><RA_OF_ASC_NODE>45.5384</RA_OF_ASC_NODE><ARG_OF_PERICENTER>329.0851</ARG_OF_PERICENTER><MEAN_ANOMALY>30.9397</MEAN_ANOMALY></meanElements><tleParameters><EPHEMERIS_TYPE>0</EPHEMERIS_TYPE><CLASSIFICATION_TYPE>U</CLASSIFICATION_TYPE><NORAD_CAT_ID>63725</NORAD_CAT_ID><ELEMENT_SET_NO>999</ELEMENT_SET_NO><REV_AT_EPOCH>2571</REV_AT_EPOCH><BSTAR>.93505145E-3</BSTAR><MEAN_MOTION_DOT>.6937E-4</MEAN_MOTION_DOT><MEAN_MOTION_DDOT>0</MEAN_MOTION_DDOT></tleParameters></data></segment></body></omm>
<omm id="CCSDS_OMM_VERS" version="2.0">
<header><CREATION_DATE/><ORIGINATOR/></header><body><segment><metadata><OBJECT_NAME>KUIPER-00010</OBJECT_NAME><OBJECT_ID>2025-088C</OBJECT_ID><CENTER_NAME>EARTH</CENTER_NAME><REF_FRAME>TEME</REF_FRAME><TIME_SYSTEM>UTC</TIME_SYSTEM><MEAN_ELEMENT_THEORY>SGP4</MEAN_ELEMENT_THEORY></metadata><data><meanElements><EPOCH>2025-10-12T08:00:01.999872</EPOCH><MEAN_MOTION>14.99092540</MEAN_MOTION><ECCENTRICITY>.00119901</ECCENTRICITY><INCLINATION>51.8959</INCLINATION><RA_OF_ASC_NODE>19.9930</RA_OF_ASC_NODE><ARG_OF_PERICENTER>12.1635</ARG_OF_PERICENTER><MEAN_ANOMALY>152.2388</MEAN_ANOMALY></meanElements><tleParameters><EPHEMERIS_TYPE>0</EPHEMERIS_TYPE><CLASSIFICATION_TYPE>U</CLASSIFICATION_TYPE><NORAD_CAT_ID>63726</NORAD_CAT_ID><ELEMENT_SET_NO>999</ELEMENT_SET_NO><REV_AT_EPOCH>445</REV_AT_EPOCH><BSTAR>-.37299107E-1</BSTAR><MEAN_MOTION_DOT>-.43206E-2</MEAN_MOTION_DOT><MEAN_MOTION_DDOT>0</MEAN_MOTION_DDOT></tleParameters></data></segment></body></omm>
<omm id="CCSDS_OMM_VERS" version="2.0">
<header><CREATION_DATE/><ORIGINATOR/></header><body><segment><metadata><OBJECT_NAME>KUIPER-00011</OBJECT_NAME><OBJECT_ID>2025-088D</OBJECT_ID><CENTER_NAME>EARTH</CENTER_NAME><REF_FRAME>TEME</REF_FRAME><TIME_SYSTEM>UTC</TIME_SYSTEM><MEAN_ELEMENT_THEORY>SGP4</MEAN_ELEMENT_THEORY></metadata><data><meanElements><EPOCH>2025-10-12T07:16:10.216128</EPOCH><MEAN_MOTION>14.79959620</MEAN_MOTION><ECCENTRICITY>.0012734</ECCENTRICITY><INCLINATION>51.9048</INCLINATION><RA_OF_ASC_NODE>26.8302</RA_OF_ASC_NODE><ARG_OF_PERICENTER>346.9838</ARG_OF_PERICENTER><MEAN_ANOMALY>13.0794</MEAN_ANOMALY></meanElements><tleParameters><EPHEMERIS_TYPE>0</EPHEMERIS_TYPE><CLASSIFICATION_TYPE>U</CLASSIFICATION_TYPE><NORAD_CAT_ID>63727</NORAD_CAT_ID><ELEMENT_SET_NO>999</ELEMENT_SET_NO><REV_AT_EPOCH>2578</REV_AT_EPOCH><BSTAR>.28538286E-3</BSTAR><MEAN_MOTION_DOT>.1956E-4</MEAN_MOTION_DOT><MEAN_MOTION_DDOT>0</MEAN_MOTION_DDOT></tleParameters></data></segment></body></omm>
<omm id="CCSDS_OMM_VERS" version="2.0">
<header><CREATION_DATE/><ORIGINATOR/></header><body><segment><metadata><OBJECT_NAME>KUIPER-00012</OBJECT_NAME><OBJECT_ID>2025-088E</OBJECT_ID><CENTER_NAME>EARTH</CENTER_NAME><REF_FRAME>TEME</REF_FRAME><TIME_SYSTEM>UTC</TIME_SYSTEM><MEAN_ELEMENT_THEORY>SGP4</MEAN_ELEMENT_THEORY></metadata><data><meanElements><EPOCH>2025-10-11T15:28:40.439136</EPOCH><MEAN_MOTION>15.21179973</MEAN_MOTION><ECCENTRICITY>.00106781</ECCENTRICITY><INCLINATION>51.8733</INCLINATION><RA_OF_ASC_NODE>22.2350</RA_OF_ASC_NODE><ARG_OF_PERICENTER>337.0471</ARG_OF_PERICENTER><MEAN_ANOMALY>23.0030</MEAN_ANOMALY></meanElements><tleParameters><EPHEMERIS_TYPE>0</EPHEMERIS_TYPE><CLASSIFICATION_TYPE>U</CLASSIFICATION_TYPE><NORAD_CAT_ID>63728</NORAD_CAT_ID><ELEMENT_SET_NO>999</ELEMENT_SET_NO><REV_AT_EPOCH>2574</REV_AT_EPOCH><BSTAR>.49714753E-3</BSTAR><MEAN_MOTION_DOT>.10933E-3</MEAN_MOTION_DOT><MEAN_MOTION_DDOT>0</MEAN_MOTION_DDOT></tleParameters></data></segment></body></omm>
<omm id="CCSDS_OMM_VERS" version="2.0">
<header><CREATION_DATE/><ORIGINATOR/></header><body><segment><metadata><OBJECT_NAME>KUIPER-00013</OBJECT_NAME><OBJECT_ID>2025-088F</OBJECT_ID><CENTER_NAME>EARTH</CENTER_NAME><REF_FRAME>TEME</REF_FRAME><TIME_SYSTEM>UTC</TIME_SYSTEM><MEAN_ELEMENT_THEORY>SGP4</MEAN_ELEMENT_THEORY></metadata><data><meanElements><EPOCH>2025-10-11T16:13:12.978624</EPOCH><MEAN_MOTION>14.79932050</MEAN_MOTION><ECCENTRICITY>.00070878</ECCENTRICITY><INCLINATION>51.9051</INCLINATION><RA_OF_ASC_NODE>47.0110</RA_OF_ASC_NODE><ARG_OF_PERICENTER>252.1379</ARG_OF_PERICENTER><MEAN_ANOMALY>107.8811</MEAN_ANOMALY></meanElements><tleParameters><EPHEMERIS_TYPE>0</EPHEMERIS_TYPE><CLASSIFICATION_TYPE>U</CLASSIFICATION_TYPE><NORAD_CAT_ID>63729</NORAD_CAT_ID><ELEMENT_SET_NO>999</ELEMENT_SET_NO><REV_AT_EPOCH>2550</REV_AT_EPOCH><BSTAR>.20629627E-4</BSTAR><MEAN_MOTION_DOT>-.66E-6</MEAN_MOTION_DOT><MEAN_MOTION_DDOT>0</MEAN_MOTION_DDOT></tleParameters></data></segment></body></omm>
<omm id="CCSDS_OMM_VERS" version="2.0">
<header><CREATION_DATE/><ORIGINATOR/></header><body><segment><metadata><OBJECT_NAME>KUIPER-00014</OBJECT_NAME><OBJECT_ID>2025-088G</OBJECT_ID><CENTER_NAME>EARTH</CENTER_NAME><REF_FRAME>TEME</REF_FRAME><TIME_SYSTEM>UTC</TIME_SYSTEM><MEAN_ELEMENT_THEORY>SGP4</MEAN_ELEMENT_THEORY></metadata><data><meanElements><EPOCH>2025-10-12T01:54:33.442272</EPOCH><MEAN_MOTION>14.79924721</MEAN_MOTION><ECCENTRICITY>.00069185</ECCENTRICITY><INCLINATION>51.9038</INCLINATION><RA_OF_ASC_NODE>46.1951</RA_OF_ASC_NODE><ARG_OF_PERICENTER>326.6009</ARG_OF_PERICENTER><MEAN_ANOMALY>33.4516</MEAN_ANOMALY></meanElements><tleParameters><EPHEMERIS_TYPE>0</EPHEMERIS_TYPE><CLASSIFICATION_TYPE>U</CLASSIFICATION_TYPE><NORAD_CAT_ID>63730</NORAD_CAT_ID><ELEMENT_SET_NO>999</ELEMENT_SET_NO><REV_AT_EPOCH>2536</REV_AT_EPOCH><BSTAR>-.46258891E-4</BSTAR><MEAN_MOTION_DOT>-.576E-5</MEAN_MOTION_DOT><MEAN_MOTION_DDOT>0</MEAN_MOTION_DDOT></tleParameters></data></segment></body></omm>
<omm id="CCSDS_OMM_VERS" version="2.0">
<header><CREATION_DATE/><ORIGINATOR/></header><body><segment><metadata><OBJECT_NAME>KUIPER-00015</OBJECT_NAME><OBJECT_ID>2025-088H</OBJECT_ID><CENTER_NAME>EARTH</CENTER_NAME><REF_FRAME>TEME</REF_FRAME><TIME_SYSTEM>UTC</TIME_SYSTEM><MEAN_ELEMENT_THEORY>SGP4</MEAN_ELEMENT_THEORY></metadata><data><meanElements><EPOCH>2025-10-12T01:22:06.797568</EPOCH><MEAN_MOTION>14.81375111</MEAN_MOTION><ECCENTRICITY>.0009351</ECCENTRICITY><INCLINATION>51.8992</INCLINATION><RA_OF_ASC_NODE>58.0469</RA_OF_ASC_NODE><ARG_OF_PERICENTER>307.1135</ARG_OF_PERICENTER><MEAN_ANOMALY>52.8973</MEAN_ANOMALY></meanElements><tleParameters><EPHEMERIS_TYPE>0</EPHEMERIS_TYPE><CLASSIFICATION_TYPE>U</CLASSIFICATION_TYPE><NORAD_CAT_ID>63731</NORAD_CAT_ID><ELEMENT_SET_NO>999</ELEMENT_SET_NO><REV_AT_EPOCH>2565</REV_AT_EPOCH><BSTAR>.60773448E-3</BSTAR><MEAN_MOTION_DOT>.4576E-4</MEAN_MOTION_DOT><MEAN_MOTION_DDOT>0</MEAN_MOTION_DDOT></tleParameters></data></segment></body></omm>

</ndm>
